TRANSPORTER-11 OBJECT A 
1 60468U 24149A   26068.74646182  .00010774  00000+0  36054-3 0  9993
2 60468  97.3780 149.0949 0003110 191.0010 169.1164 15.31141332 86830
STARLINK-35844          
1 66880U 25283C   26068.14799784  .00018153  00000+0  62349-3 0  9993
2 66880  53.1620  26.5109 0001005  78.7465 281.3648 15.30201934 15762
